NUSAT-50 (NANCY ROMAN)  
1 60493U 24149AB  26068.80227738  .00012094  00000+0  42252-3 0  9994
2 60493  97.3817 150.7693 0002523 238.0469 122.0527 15.29713355 86930
STARLINK-36458          
1 67343U 26003K   26068.48126518  .00036087  00000+0  13148-2 0  9993
2 67343  42.9974 228.0961 0001430 230.7461 129.3264 15.27571621  8797
